CCSDS_OMM_VERS = 2.0
CREATION_DATE  = 
ORIGINATOR     = 

OBJECT_NAME    = RSP-03
OBJECT_ID      = 1998-067XL
CENTER_NAME    = EARTH
REF_FRAME      = TEME
TIME_SYSTEM    = UTC
MEAN_ELEMENT_THEORY = SGP/SGP4

EPOCH          = 2026-02-04T17:25:42.854880
MEAN_MOTION    = 15.96476221
ECCENTRICITY   = .0005829
INCLINATION    = 51.6162
RA_OF_ASC_NODE = 217.1774
ARG_OF_PERICENTER = 262.1865
MEAN_ANOMALY   = 97.8482

EPHEMERIS_TYPE = 0
CLASSIFICATION_TYPE = U
NORAD_CAT_ID   = 65732
ELEMENT_SET_NO = 999
REV_AT_EPOCH   = 2169
BSTAR          = .13973E-2
MEAN_MOTION_DOT = .601132E-2
MEAN_MOTION_DDOT = .16331E-3

CCSDS_OMM_VERS = 2.0
CREATION_DATE  = 
ORIGINATOR     = 

OBJECT_NAME    = YOTSUBA-KULOVER
OBJECT_ID      = 1998-067XN
CENTER_NAME    = EARTH
REF_FRAME      = TEME
TIME_SYSTEM    = UTC
MEAN_ELEMENT_THEORY = SGP/SGP4

EPOCH          = 2026-02-02T23:38:06.260352
MEAN_MOTION    = 15.69363652
ECCENTRICITY   = .00042468
INCLINATION    = 51.6239
RA_OF_ASC_NODE = 235.6577
ARG_OF_PERICENTER = 213.0597
MEAN_ANOMALY   = 147.0135

EPHEMERIS_TYPE = 0
CLASSIFICATION_TYPE = U
NORAD_CAT_ID   = 65941
ELEMENT_SET_NO = 999
REV_AT_EPOCH   = 1803
BSTAR          = .89351479E-3
MEAN_MOTION_DOT = .107724E-2
MEAN_MOTION_DDOT = 0

CCSDS_OMM_VERS = 2.0
CREATION_DATE  = 
ORIGINATOR     = 

OBJECT_NAME    = BOTAN
OBJECT_ID      = 1998-067XP
CENTER_NAME    = EARTH
REF_FRAME      = TEME
TIME_SYSTEM    = UTC
MEAN_ELEMENT_THEORY = SGP/SGP4

EPOCH          = 2026-02-03T21:59:06.281952
MEAN_MOTION    = 15.81334182
ECCENTRICITY   = .00054672
INCLINATION    = 51.6183
RA_OF_ASC_NODE = 227.5880
ARG_OF_PERICENTER = 240.0563
MEAN_ANOMALY   = 119.9896

EPHEMERIS_TYPE = 0
CLASSIFICATION_TYPE = U
NORAD_CAT_ID   = 65942
ELEMENT_SET_NO = 999
REV_AT_EPOCH   = 1822
BSTAR          = .14688566E-2
MEAN_MOTION_DOT = .306933E-2
MEAN_MOTION_DDOT = 0

CCSDS_OMM_VERS = 2.0
CREATION_DATE  = 
ORIGINATOR     = 

OBJECT_NAME    = E-KAGAKU-1
OBJECT_ID      = 1998-067XQ
CENTER_NAME    = EARTH
REF_FRAME      = TEME
TIME_SYSTEM    = UTC
MEAN_ELEMENT_THEORY = SGP/SGP4

EPOCH          = 2026-02-03T22:34:09.913728
MEAN_MOTION    = 15.69525109
ECCENTRICITY   = .00032425
INCLINATION    = 51.6262
RA_OF_ASC_NODE = 230.7980
ARG_OF_PERICENTER = 231.2100
MEAN_ANOMALY   = 128.8608

EPHEMERIS_TYPE = 0
CLASSIFICATION_TYPE = U
NORAD_CAT_ID   = 65943
ELEMENT_SET_NO = 999
REV_AT_EPOCH   = 1818
BSTAR          = .97344169E-3
MEAN_MOTION_DOT = .118334E-2
MEAN_MOTION_DDOT = 0

CCSDS_OMM_VERS = 2.0
CREATION_DATE  = 
ORIGINATOR     = 

OBJECT_NAME    = HRC MONOBLOCK CAMERA
OBJECT_ID      = 1998-067XR
CENTER_NAME    = EARTH
REF_FRAME      = TEME
TIME_SYSTEM    = UTC
MEAN_ELEMENT_THEORY = SGP/SGP4

EPOCH          = 2026-02-04T17:14:48.547680
MEAN_MOTION    = 15.58789985
ECCENTRICITY   = .0000535
INCLINATION    = 51.6282
RA_OF_ASC_NODE = 231.4945
ARG_OF_PERICENTER = 1.9112
MEAN_ANOMALY   = 358.1883

EPHEMERIS_TYPE = 0
CLASSIFICATION_TYPE = U
NORAD_CAT_ID   = 66052
ELEMENT_SET_NO = 999
REV_AT_EPOCH   = 1724
BSTAR          = .57495E-3
MEAN_MOTION_DOT = .45006E-3
MEAN_MOTION_DDOT = 0

CCSDS_OMM_VERS = 2.0
CREATION_DATE  = 
ORIGINATOR     = 

OBJECT_NAME    = HTV-X1
OBJECT_ID      = 2025-241A
CENTER_NAME    = EARTH
REF_FRAME      = TEME
TIME_SYSTEM    = UTC
MEAN_ELEMENT_THEORY = SGP/SGP4

EPOCH          = 2026-02-04T00:25:30.395424
MEAN_MOTION    = 15.48378125
ECCENTRICITY   = .00111076
INCLINATION    = 51.6311
RA_OF_ASC_NODE = 238.8105
ARG_OF_PERICENTER = 61.9619
MEAN_ANOMALY   = 298.2491

EPHEMERIS_TYPE = 0
CLASSIFICATION_TYPE = U
NORAD_CAT_ID   = 66174
ELEMENT_SET_NO = 999
REV_AT_EPOCH   = 51
BSTAR          = .1987377E-3
MEAN_MOTION_DOT = .10297E-3
MEAN_MOTION_DDOT = 0

CCSDS_OMM_VERS = 2.0
CREATION_DATE  = 
ORIGINATOR     = 

OBJECT_NAME    = SZ-21 MODULE
OBJECT_ID      = 2025-246C
CENTER_NAME    = EARTH
REF_FRAME      = TEME
TIME_SYSTEM    = UTC
MEAN_ELEMENT_THEORY = SGP/SGP4

EPOCH          = 2026-02-04T17:55:34.120416
MEAN_MOTION    = 15.66050226
ECCENTRICITY   = .0003162
INCLINATION    = 41.4760
RA_OF_ASC_NODE = 45.7588
ARG_OF_PERICENTER = 275.0689
MEAN_ANOMALY   = 84.9790

EPHEMERIS_TYPE = 0
CLASSIFICATION_TYPE = U
NORAD_CAT_ID   = 66515
ELEMENT_SET_NO = 999
REV_AT_EPOCH   = 1290
BSTAR          = .32974E-3
MEAN_MOTION_DOT = .34575E-3
MEAN_MOTION_DDOT = 0

CCSDS_OMM_VERS = 2.0
CREATION_DATE  = 
ORIGINATOR     = 

OBJECT_NAME    = SHENZHOU-22
OBJECT_ID      = 2025-272A
CENTER_NAME    = EARTH
REF_FRAME      = TEME
TIME_SYSTEM    = UTC
MEAN_ELEMENT_THEORY = SGP/SGP4

EPOCH          = 2026-02-04T07:05:49.289568
MEAN_MOTION    = 15.59172508
ECCENTRICITY   = .00059729
INCLINATION    = 41.4675
RA_OF_ASC_NODE = 51.1227
ARG_OF_PERICENTER = 356.5106
MEAN_ANOMALY   = 3.5690

EPHEMERIS_TYPE = 0
CLASSIFICATION_TYPE = U
NORAD_CAT_ID   = 66645
ELEMENT_SET_NO = 999
REV_AT_EPOCH   = 26764
BSTAR          = .22165126E-3
MEAN_MOTION_DOT = .1758E-3
MEAN_MOTION_DDOT = 0

CCSDS_OMM_VERS = 2.0
CREATION_DATE  = 
ORIGINATOR     = 

OBJECT_NAME    = SOYUZ-MS 28
OBJECT_ID      = 2025-275A
CENTER_NAME    = EARTH
REF_FRAME      = TEME
TIME_SYSTEM    = UTC
MEAN_ELEMENT_THEORY = SGP/SGP4

EPOCH          = 2026-02-04T12:49:01.064640
MEAN_MOTION    = 15.48388993
ECCENTRICITY   = .0011166
INCLINATION    = 51.6314
RA_OF_ASC_NODE = 236.2588
ARG_OF_PERICENTER = 64.0196
MEAN_ANOMALY   = 296.1942

EPHEMERIS_TYPE = 0
CLASSIFICATION_TYPE = U
NORAD_CAT_ID   = 66664
ELEMENT_SET_NO = 999
REV_AT_EPOCH   = 55119
BSTAR          = .18669E-3
MEAN_MOTION_DOT = .9649E-4
MEAN_MOTION_DDOT = 0

CCSDS_OMM_VERS = 2.0
CREATION_DATE  = 
ORIGINATOR     = 

OBJECT_NAME    = DUPLEX
OBJECT_ID      = 1998-067XS
CENTER_NAME    = EARTH
REF_FRAME      = TEME
TIME_SYSTEM    = UTC
MEAN_ELEMENT_THEORY = SGP/SGP4

EPOCH          = 2026-02-04T19:28:39.393984
MEAN_MOTION    = 15.53878232
ECCENTRICITY   = .0001504
INCLINATION    = 51.6288
RA_OF_ASC_NODE = 233.6147
ARG_OF_PERICENTER = 84.6110
MEAN_ANOMALY   = 275.5052

EPHEMERIS_TYPE = 0
CLASSIFICATION_TYPE = U
NORAD_CAT_ID   = 66906
ELEMENT_SET_NO = 999
REV_AT_EPOCH   = 1001
BSTAR          = .48716E-3
MEAN_MOTION_DOT = .31605E-3
MEAN_MOTION_DDOT = 0

CCSDS_OMM_VERS = 2.0
CREATION_DATE  = 
ORIGINATOR     = 

OBJECT_NAME    = 1998-067XT
OBJECT_ID      = 1998-067XT
CENTER_NAME    = EARTH
REF_FRAME      = TEME
TIME_SYSTEM    = UTC
MEAN_ELEMENT_THEORY = SGP/SGP4

EPOCH          = 2026-02-04T13:28:12.020736
MEAN_MOTION    = 15.60654378
ECCENTRICITY   = .0002347
INCLINATION    = 51.6256
RA_OF_ASC_NODE = 233.4416
ARG_OF_PERICENTER = 188.1617
MEAN_ANOMALY   = 171.9338

EPHEMERIS_TYPE = 0
CLASSIFICATION_TYPE = U
NORAD_CAT_ID   = 66907
ELEMENT_SET_NO = 999
REV_AT_EPOCH   = 999
BSTAR          = .11614E-2
MEAN_MOTION_DOT = .98859E-3
MEAN_MOTION_DDOT = 0

CCSDS_OMM_VERS = 2.0
CREATION_DATE  = 
ORIGINATOR     = 

OBJECT_NAME    = 1998-067XU
OBJECT_ID      = 1998-067XU
CENTER_NAME    = EARTH
REF_FRAME      = TEME
TIME_SYSTEM    = UTC
MEAN_ELEMENT_THEORY = SGP/SGP4

EPOCH          = 2026-02-04T13:27:29.829888
MEAN_MOTION    = 15.60694624
ECCENTRICITY   = .0002116
INCLINATION    = 51.6255
RA_OF_ASC_NODE = 233.4362
ARG_OF_PERICENTER = 187.7301
MEAN_ANOMALY   = 172.3660

EPHEMERIS_TYPE = 0
CLASSIFICATION_TYPE = U
NORAD_CAT_ID   = 66908
ELEMENT_SET_NO = 999
REV_AT_EPOCH   = 999
BSTAR          = .11761E-2
MEAN_MOTION_DOT = .100287E-2
MEAN_MOTION_DDOT = 0

